[
  {
    "name": "PLEIADES NEO 3",
    "line1": "1 48268U 21034A   25336.32847076 -.00000060  00000+0 -10660-5 0  9999",
    "line2": "2 48268  97.8947  48.9189 0001194  97.6045 262.5303 14.81676863248509",
    "catNr": 48268
  },
  {
    "name": "PLEIADES NEO 4",
    "line1": "1 49070U 21073E   25336.29469520 -.00000056  00000+0 -51104-6 0  9998",
    "line2": "2 49070  97.8949  48.8813 0001314  96.2208 263.9155 14.81673184232210",
    "catNr": 49070
  }
]